satname,norad_id,inclination_deg,eccentricity,mean_motion_rev_per_day,perigee_km,apogee_km,l1,l2
STARLINK-1008,44714,53.0548,0.0001539,15.06398505,546.1503280535171,548.2819517499793,1 44714U 19074B   25341.01832042 -.00003359  00000+0 -20672-3 0  9997,2 44714  53.0548 242.6336 0001539  71.3566 288.7590 15.06398505334785
STARLINK-1012,44718,53.054,0.0001455,15.06401219,546.2001842097816,548.2154595529491,1 44718U 19074F   25341.12890085  .00000765  00000+0  70243-4 0  9990,2 44718  53.0540 242.1410 0001455  81.9528 278.1626 15.06401219334792
STARLINK-1017,44723,53.0503,0.0006613,15.17511196,508.807948572422,517.9226495131361,1 44723U 19074L   25341.12695038  .00011479  00000+0  58002-3 0  9999,2 44723  53.0503 236.1896 0006613  74.9784 285.1942 15.17511196334882
STARLINK-1019,44724,53.0523,0.0004546,15.5570423,397.0249025437188,403.1876813447552,1 44724U 19074M   25341.28350696  .00048373  00000+0  69308-3 0  9999,2 44724  53.0523 231.8331 0004546 118.9930 241.1537 15.55704230334951
STARLINK-1020,44725,53.054,0.0001379,15.06411875,546.2201624653972,548.1301635599557,1 44725U 19074N   25341.19708469 -.00000028  00000+0  16983-4 0  9993,2 44725  53.0540 261.8353 0001379  82.9036 277.2110 15.06411875334522
STARLINK-1031,44736,53.0468,0.0007704,15.57662775,389.2057192983566,399.640880208216,1 44736U 19074Z   25341.33336806  .00092435  00000+0  12179-2 0  9996,2 44736  53.0468 218.5487 0007704  74.1322 109.9263 15.57662775  5965
STARLINK-1036,44741,53.0541,0.0001371,15.0642569,546.1833684145449,548.0822773999853,1 44741U 19074AE  25341.16023185  .00015342  00000+0  10459-2 0  9997,2 44741  53.0541 261.9972 0001371 112.9922 247.1212 15.06425690334528
STARLINK-1039,44744,53.051,0.0002718,15.15032819,519.0037736305949,522.7540786880554,1 44744U 19074AH  25341.23702065  .00012151  00000+0  65760-3 0  9990,2 44744  53.0510 277.6217 0002718  28.4429 331.6711 15.15032819334319
STARLINK-1042,44747,53.0443,0.0002597,15.45032391,429.5144929148619,433.0513056105383,1 44747U 19074AL  25340.96749662  .00029279  00000+0  61705-3 0  9990,2 44747  53.0443 178.0049 0002597 176.6008 183.5015 15.45032391335712
STARLINK-1043,44748,53.0566,0.0002458,15.43452814,434.2530719731785,437.6028663120096,1 44748U 19074AM  25341.20720802  .00030491  00000+0  67731-3 0  9997,2 44748  53.0566 277.6582 0002458  96.4913 263.6372 15.43452814334312
STARLINK-1046,44751,53.0548,0.000153,15.06392085,546.1762343386181,548.2953984204305,1 44751U 19074AQ  25341.21368684  .00002573  00000+0  19160-3 0  9991,2 44751  53.0548 281.7590 0001530  81.7968 278.3195 15.06392085334259
STARLINK-1047,44752,53.0685,8.27e-05,15.30252888,474.49040077557584,475.62391908962945,1 44752U 19074AR  25340.88864884  .00015229  00000+0  52435-3 0  9991,2 44752  53.0685 218.7551 0000827 310.8871  49.2057 15.30252888335128
STARLINK-1048,44753,53.0535,0.0001415,15.06426795,546.1495111389986,548.1093615404834,1 44753U 19074AS  25341.10678227  .00015536  00000+0  10588-2 0  9995,2 44753  53.0535 242.2370 0001415  75.5154 284.5991 15.06426795334793
STARLINK-1053,44758,53.0367,0.0004239,15.66257487,366.7642888390192,372.48504117861376,1 44758U 19074AX  25341.30190837  .00087253  00000+0  82551-3 0  9993,2 44758  53.0367 184.7015 0004239 154.2654 205.8572 15.66257487335635
STARLINK-1060,44765,53.0485,0.000907,15.74083872,341.13947796626053,353.33931074562133,1 44765U 19074BE  25341.28020987  .00189228  00000+0  12706-2 0  9995,2 44765  53.0485 229.7444 0009070 113.9396 246.2573 15.74083872334984
STARLINK-1063,44768,53.0547,0.0001238,15.0638228,546.4085028434847,548.1232325935307,1 44768U 19074BH  25341.26897839  .00003156  00000+0  23074-3 0  9990,2 44768  53.0547 281.5125 0001238  86.6065 273.5066 15.06382280334277
STARLINK-1067,44771,53.0554,0.0001659,15.06361573,546.1803987976564,548.4782685271657,1 44771U 19074BL  25341.25791437 -.00003879  00000+0 -24191-3 0  9995,2 44771  53.0554 281.5609 0001659  95.5222 264.5957 15.06361573334267
STARLINK-1068,44772,53.0533,0.0001541,15.09679544,536.1127779994686,538.2440782144122,1 44772U 19074BM  25341.33336806  .02345093  00000+0  12944+0 0  9996,2 44772  53.0533 261.2035 0001541  70.8586  39.3887 15.09679544  5686
STARLINK-1112,44925,53.0481,0.000651,15.62351456,376.466580628432,385.2668034354574,1 44925U 20001M   25341.33336806  .00184222  00000+0  20021-2 0  9999,2 44925  53.0481 345.4945 0006510  11.7496 259.3446 15.62351456  5906
STARLINK-1114,44927,53.0561,0.0001471,15.06448647,546.0437690605477,548.081162743415,1 44927U 20001P   25340.62393394  .00043768  00000+0  29352-2 0  9992,2 44927  53.0561  44.4100 0001471  97.2538 262.8618 15.06448647325826
STARLINK-1123,44930,53.0559,0.0001364,15.06395972,546.2792839784506,548.1685224328448,1 44930U 20001S   25340.90407431  .00008967  00000+0  62017-3 0  9993,2 44930  53.0559  43.1506 0001364  88.1866 271.9279 15.06395972325867
STARLINK-1144,44933,53.042,0.0001228,15.71362733,354.1745776258549,355.82823641861887,1 44933U 20001V   25341.22586155  .00112709  00000+0  86105-3 0  9997,2 44933  53.0420 320.8919 0001228 132.4525 227.6596 15.71362733328341
STARLINK-1094,44941,53.0565,0.0001371,15.06405376,546.2456182932165,548.1445443499142,1 44941U 20001AD  25340.85062397  .00013141  00000+0  89934-3 0  9994,2 44941  53.0565  23.3912 0001371  77.0115 283.1027 15.06405376326136
STARLINK-1122,44949,53.0546,0.0001767,15.06405832,545.9699778240865,548.4173896877255,1 44949U 20001AM  25341.13813287  .00009878  00000+0  68101-3 0  9991,2 44949  53.0546  22.0957 0001767  97.2118 262.9072 15.06405832326170
STARLINK-1080,44961,53.0547,0.0001498,15.06423387,546.1024746021612,548.1772875557326,1 44961U 20001AZ  25341.33531970  .00012232  00000+0  83813-3 0  9998,2 44961  53.0547   1.2137 0001498  71.7528 288.3624 15.06423387326492
STARLINK-1090,44968,53.0528,0.0001211,15.06392227,546.3967185708407,548.0740437615596,1 44968U 20001BG  25341.07363090  .00004533  00000+0  32309-3 0  9991,2 44968  53.0528   2.3896 0001211  66.1387 293.9729 15.06392227326458
STARLINK-1107,44972,52.9962,0.0007314,16.00667095,267.7058968580186,277.43455138546415,1 44972U 20001BL  25341.33336806  .01277722  88090-3  23666-2 0  9997,2 44972  52.9962 256.0453 0007314 156.0357  18.3301 16.00667095  5986
STARLINK-1132,45044,53.054,0.000157,15.06409145,546.0962546489864,548.2708052953967,1 45044U 20006A   25340.36959954  .00011060  00000+0  76004-3 0  9996,2 45044  53.0540 325.5511 0001570 100.8539 259.2627 15.06409145322675
STARLINK-1131,45047,53.0567,0.0001517,15.06389838,546.1921230787948,548.2932832807392,1 45047U 20006D   25341.27455870  .00001121  00000+0  94148-4 0  9995,2 45047  53.0567 342.0274 0001517  92.4025 267.7138 15.06389838322525
STARLINK-1134,45048,53.0381,0.0004955,15.31805361,467.0324746341148,473.81940050524554,1 45048U 20006E   25341.20037889  .00019531  00000+0  63720-3 0  9990,2 45048  53.0381 314.0741 0004955 318.6089  41.4535 15.31805361322913
STARLINK-1156,45054,53.0552,0.0001512,15.06400355,546.1633573771687,548.2575824520709,1 45054U 20006L   25340.71425070  .00011291  00000+0  77564-3 0  9991,2 45054  53.0552 344.0017 0001512 105.8862 254.2294 15.06400355322440
STARLINK-1159,45057,53.0546,0.0006538,15.56029891,394.7295175846857,403.5915118149069,1 45057U 20006P   25341.29759846  .00052206  00000+0  73786-3 0  9992,2 45057  53.0546 329.7746 0006538  48.3933 311.7637 15.56029891322704
STARLINK-1166,45060,53.0554,0.0001246,15.06388708,546.3832637655732,548.1090692506668,1 45060U 20006S   25341.27081586  .00001485  00000+0  11857-3 0  9997,2 45060  53.0554 341.5039 0001246  73.7786 286.3340 15.06388708322532
STARLINK-1169,45061,53.0563,1.69e-05,15.06415735,547.0462952736843,547.2803704249345,1 45061U 20006T   25340.74739186  .00008244  00000+0  57143-3 0  9993,2 45061  53.0563 343.8528 0000169 117.1288 242.9718 15.06415735322453
STARLINK-1171,45062,53.055,0.0011033,15.38513078,442.97150760260774,458.03959025106997,1 45062U 20006U   25341.25604172  .00027650  00000+0  72309-3 0  9990,2 45062  53.0550 331.6582 0011033  35.6705 324.5033 15.38513078322670
STARLINK-1133,45064,53.0575,0.0001518,15.06410616,546.1277586462566,548.2302845904196,1 45064U 20006W   25341.20997808 -.00000482  00000+0 -13477-4 0  9996,2 45064  53.0575 321.7758 0001518 103.2017 256.9141 15.06410616322801
STARLINK-1167,45071,53.0528,0.0001542,15.06403439,546.1331307962737,548.2689050409999,1 45071U 20006AD  25341.23579009  .00004011  00000+0  28800-3 0  9991,2 45071  53.0528 321.6595 0001542  97.2566 262.8598 15.06403439322800
STARLINK-1168,45072,53.0541,0.0002098,15.06405101,545.7429893045855,548.6488589995588,1 45072U 20006AE  25341.23947522  .00003795  00000+0  27352-3 0  9990,2 45072  53.0541 321.6420 0002098  95.9402 264.1826 15.06405101322801
STARLINK-1172,45074,53.0573,0.0001828,15.06394147,545.9635396027952,548.4954535939514,1 45074U 20006AG  25341.25054115  .00001049  00000+0  89330-4 0  9996,2 45074  53.0573 321.5970 0001828  99.2054 260.9142 15.06394147322809
STARLINK-1153,45080,53.0554,0.0001702,15.06393167,546.0538022893761,548.411198067236,1 45080U 20006AN  25341.22842509  .00002377  00000+0  17845-3 0  9998,2 45080  53.0554 321.6912 0001702  96.5071 263.6112 15.06393167322800
STARLINK-1151,45081,53.0555,0.000343,15.10542841,532.1723260936578,536.9144248312241,1 45081U 20006AP  25341.25475382  .00065276  00000+0  38949-2 0  9997,2 45081  53.0555 321.3867 0003430  43.1672 316.9587 15.10542841322812
STARLINK-1185,45087,53.0531,0.0001116,15.06402276,546.4317142142763,547.9774504554534,1 45087U 20006AV  25341.18972608  .00007564  00000+0  52608-3 0  9993,2 45087  53.0531 301.8654 0001116  73.2780 286.8331 15.06402276323086
STARLINK-1183,45088,53.0554,0.0001249,15.06433209,546.244815683337,547.9747423287336,1 45088U 20006AW  25340.88007565  .00011839  00000+0  81164-3 0  9990,2 45088  53.0554 303.2598 0001249  86.4169 273.6963 15.06433209323039
